CCSDS_OMM_VERS = 2.0
CREATION_DATE  = 
ORIGINATOR     = 

OBJECT_NAME    = STARLINK-36185
OBJECT_ID      = 2025-304N
CENTER_NAME    = EARTH
REF_FRAME      = TEME
TIME_SYSTEM    = UTC
MEAN_ELEMENT_THEORY = SGP/SGP4

EPOCH          = 2026-01-05T14:00:03.000384
MEAN_MOTION    = 15.52603551
ECCENTRICITY   = .00031626
INCLINATION    = 69.9998
RA_OF_ASC_NODE = 340.3097
ARG_OF_PERICENTER = 265.9723
MEAN_ANOMALY   = 96.3925

EPHEMERIS_TYPE = 0
CLASSIFICATION_TYPE = U
NORAD_CAT_ID   = 67204
ELEMENT_SET_NO = 999
REV_AT_EPOCH   = 430
BSTAR          = -.2982546E-2
MEAN_MOTION_DOT = -.180109E-2
MEAN_MOTION_DDOT = 0

CCSDS_OMM_VERS = 2.0
CREATION_DATE  = 
ORIGINATOR     = 

OBJECT_NAME    = STARLINK-36197
OBJECT_ID      = 2025-304P
CENTER_NAME    = EARTH
REF_FRAME      = TEME
TIME_SYSTEM    = UTC
MEAN_ELEMENT_THEORY = SGP/SGP4

EPOCH          = 2026-01-05T14:00:03.000384
MEAN_MOTION    = 15.52600893
ECCENTRICITY   = .00031147
INCLINATION    = 69.9998
RA_OF_ASC_NODE = 340.3075
ARG_OF_PERICENTER = 267.9856
MEAN_ANOMALY   = 96.2991

EPHEMERIS_TYPE = 0
CLASSIFICATION_TYPE = U
NORAD_CAT_ID   = 67205
ELEMENT_SET_NO = 999
REV_AT_EPOCH   = 427
BSTAR          = -.29513286E-2
MEAN_MOTION_DOT = -.178249E-2
MEAN_MOTION_DDOT = 0

CCSDS_OMM_VERS = 2.0
CREATION_DATE  = 
ORIGINATOR     = 

OBJECT_NAME    = STARLINK-36056
OBJECT_ID      = 2025-304Q
CENTER_NAME    = EARTH
REF_FRAME      = TEME
TIME_SYSTEM    = UTC
MEAN_ELEMENT_THEORY = SGP/SGP4

EPOCH          = 2026-01-05T14:00:03.000384
MEAN_MOTION    = 15.52658926
ECCENTRICITY   = .00037547
INCLINATION    = 69.9998
RA_OF_ASC_NODE = 340.3044
ARG_OF_PERICENTER = 268.7812
MEAN_ANOMALY   = 97.3712

EPHEMERIS_TYPE = 0
CLASSIFICATION_TYPE = U
NORAD_CAT_ID   = 67206
ELEMENT_SET_NO = 999
REV_AT_EPOCH   = 427
BSTAR          = -.36208629E-2
MEAN_MOTION_DOT = -.218052E-2
MEAN_MOTION_DDOT = 0

CCSDS_OMM_VERS = 2.0
CREATION_DATE  = 
ORIGINATOR     = 

OBJECT_NAME    = STARLINK-36225
OBJECT_ID      = 2025-304R
CENTER_NAME    = EARTH
REF_FRAME      = TEME
TIME_SYSTEM    = UTC
MEAN_ELEMENT_THEORY = SGP/SGP4

EPOCH          = 2026-01-05T14:00:03.000384
MEAN_MOTION    = 15.52601254
ECCENTRICITY   = .00031236
INCLINATION    = 69.9997
RA_OF_ASC_NODE = 340.3029
ARG_OF_PERICENTER = 267.0545
MEAN_ANOMALY   = 101.0634

EPHEMERIS_TYPE = 0
CLASSIFICATION_TYPE = U
NORAD_CAT_ID   = 67207
ELEMENT_SET_NO = 999
REV_AT_EPOCH   = 430
BSTAR          = -.29667372E-2
MEAN_MOTION_DOT = -.179161E-2
MEAN_MOTION_DDOT = 0

CCSDS_OMM_VERS = 2.0
CREATION_DATE  = 
ORIGINATOR     = 

OBJECT_NAME    = STARLINK-36265
OBJECT_ID      = 2025-304S
CENTER_NAME    = EARTH
REF_FRAME      = TEME
TIME_SYSTEM    = UTC
MEAN_ELEMENT_THEORY = SGP/SGP4

EPOCH          = 2026-01-05T14:00:03.000384
MEAN_MOTION    = 15.52644062
ECCENTRICITY   = .00035254
INCLINATION    = 70.0000
RA_OF_ASC_NODE = 340.2993
ARG_OF_PERICENTER = 267.1552
MEAN_ANOMALY   = 102.8560

EPHEMERIS_TYPE = 0
CLASSIFICATION_TYPE = U
NORAD_CAT_ID   = 67208
ELEMENT_SET_NO = 999
REV_AT_EPOCH   = 430
BSTAR          = -.3898693E-2
MEAN_MOTION_DOT = -.234164E-2
MEAN_MOTION_DDOT = 0

CCSDS_OMM_VERS = 2.0
CREATION_DATE  = 
ORIGINATOR     = 

OBJECT_NAME    = STARLINK-36226
OBJECT_ID      = 2025-304T
CENTER_NAME    = EARTH
REF_FRAME      = TEME
TIME_SYSTEM    = UTC
MEAN_ELEMENT_THEORY = SGP/SGP4

EPOCH          = 2026-01-05T14:00:03.000384
MEAN_MOTION    = 15.52657983
ECCENTRICITY   = .00036565
INCLINATION    = 69.9998
RA_OF_ASC_NODE = 340.2968
ARG_OF_PERICENTER = 268.1872
MEAN_ANOMALY   = 103.7360

EPHEMERIS_TYPE = 0
CLASSIFICATION_TYPE = U
NORAD_CAT_ID   = 67209
ELEMENT_SET_NO = 999
REV_AT_EPOCH   = 430
BSTAR          = -.42258874E-2
MEAN_MOTION_DOT = -.253333E-2
MEAN_MOTION_DDOT = 0

CCSDS_OMM_VERS = 2.0
CREATION_DATE  = 
ORIGINATOR     = 

OBJECT_NAME    = STARLINK-36173
OBJECT_ID      = 2025-304U
CENTER_NAME    = EARTH
REF_FRAME      = TEME
TIME_SYSTEM    = UTC
MEAN_ELEMENT_THEORY = SGP/SGP4

EPOCH          = 2026-01-05T14:00:03.000384
MEAN_MOTION    = 15.52601084
ECCENTRICITY   = .00031958
INCLINATION    = 69.9999
RA_OF_ASC_NODE = 340.2957
ARG_OF_PERICENTER = 268.5635
MEAN_ANOMALY   = 105.3010

EPHEMERIS_TYPE = 0
CLASSIFICATION_TYPE = U
NORAD_CAT_ID   = 67210
ELEMENT_SET_NO = 999
REV_AT_EPOCH   = 430
BSTAR          = -.29085411E-2
MEAN_MOTION_DOT = -.175726E-2
MEAN_MOTION_DDOT = 0

CCSDS_OMM_VERS = 2.0
CREATION_DATE  = 
ORIGINATOR     = 

OBJECT_NAME    = STARLINK-36280
OBJECT_ID      = 2025-304V
CENTER_NAME    = EARTH
REF_FRAME      = TEME
TIME_SYSTEM    = UTC
MEAN_ELEMENT_THEORY = SGP/SGP4

EPOCH          = 2026-01-05T14:00:03.000384
MEAN_MOTION    = 15.52623145
ECCENTRICITY   = .00032762
INCLINATION    = 70.0000
RA_OF_ASC_NODE = 340.2923
ARG_OF_PERICENTER = 268.5960
MEAN_ANOMALY   = 107.1820

EPHEMERIS_TYPE = 0
CLASSIFICATION_TYPE = U
NORAD_CAT_ID   = 67211
ELEMENT_SET_NO = 999
REV_AT_EPOCH   = 430
BSTAR          = -.35234798E-2
MEAN_MOTION_DOT = -.212055E-2
MEAN_MOTION_DDOT = 0

CCSDS_OMM_VERS = 2.0
CREATION_DATE  = 
ORIGINATOR     = 

OBJECT_NAME    = STARLINK-36213
OBJECT_ID      = 2025-304W
CENTER_NAME    = EARTH
REF_FRAME      = TEME
TIME_SYSTEM    = UTC
MEAN_ELEMENT_THEORY = SGP/SGP4

EPOCH          = 2026-01-05T14:00:03.000384
MEAN_MOTION    = 15.52675498
ECCENTRICITY   = .00031375
INCLINATION    = 69.9996
RA_OF_ASC_NODE = 340.2902
ARG_OF_PERICENTER = 275.6767
MEAN_ANOMALY   = 102.0028

EPHEMERIS_TYPE = 0
CLASSIFICATION_TYPE = U
NORAD_CAT_ID   = 67212
ELEMENT_SET_NO = 999
REV_AT_EPOCH   = 430
BSTAR          = -.19100424E-2
MEAN_MOTION_DOT = -.116621E-2
MEAN_MOTION_DDOT = 0

CCSDS_OMM_VERS = 2.0
CREATION_DATE  = 
ORIGINATOR     = 

OBJECT_NAME    = STARLINK-36199
OBJECT_ID      = 2025-304X
CENTER_NAME    = EARTH
REF_FRAME      = TEME
TIME_SYSTEM    = UTC
MEAN_ELEMENT_THEORY = SGP/SGP4

EPOCH          = 2026-01-05T14:00:03.000384
MEAN_MOTION    = 15.52607852
ECCENTRICITY   = .00031847
INCLINATION    = 69.9994
RA_OF_ASC_NODE = 340.2870
ARG_OF_PERICENTER = 269.0328
MEAN_ANOMALY   = 110.5837

EPHEMERIS_TYPE = 0
CLASSIFICATION_TYPE = U
NORAD_CAT_ID   = 67213
ELEMENT_SET_NO = 999
REV_AT_EPOCH   = 430
BSTAR          = -.30970375E-2
MEAN_MOTION_DOT = -.186889E-2
MEAN_MOTION_DDOT = 0

CCSDS_OMM_VERS = 2.0
CREATION_DATE  = 
ORIGINATOR     = 

OBJECT_NAME    = STARLINK-36203
OBJECT_ID      = 2025-304Y
CENTER_NAME    = EARTH
REF_FRAME      = TEME
TIME_SYSTEM    = UTC
MEAN_ELEMENT_THEORY = SGP/SGP4

EPOCH          = 2026-01-05T14:00:03.000384
MEAN_MOTION    = 15.52658613
ECCENTRICITY   = .0003714
INCLINATION    = 70.0000
RA_OF_ASC_NODE = 340.2864
ARG_OF_PERICENTER = 265.9833
MEAN_ANOMALY   = 115.4925

EPHEMERIS_TYPE = 0
CLASSIFICATION_TYPE = U
NORAD_CAT_ID   = 67214
ELEMENT_SET_NO = 999
REV_AT_EPOCH   = 430
BSTAR          = -.34436728E-2
MEAN_MOTION_DOT = -.207654E-2
MEAN_MOTION_DDOT = 0

CCSDS_OMM_VERS = 2.0
CREATION_DATE  = 
ORIGINATOR     = 

OBJECT_NAME    = STARLINK-36221
OBJECT_ID      = 2025-304Z
CENTER_NAME    = EARTH
REF_FRAME      = TEME
TIME_SYSTEM    = UTC
MEAN_ELEMENT_THEORY = SGP/SGP4

EPOCH          = 2026-01-05T14:00:03.000384
MEAN_MOTION    = 15.52651124
ECCENTRICITY   = .0003569
INCLINATION    = 69.9998
RA_OF_ASC_NODE = 340.2843
ARG_OF_PERICENTER = 266.1046
MEAN_ANOMALY   = 117.2857

EPHEMERIS_TYPE = 0
CLASSIFICATION_TYPE = U
NORAD_CAT_ID   = 67215
ELEMENT_SET_NO = 999
REV_AT_EPOCH   = 430
BSTAR          = -.32658934E-2
MEAN_MOTION_DOT = -.19714E-2
MEAN_MOTION_DDOT = 0

