STARLINK-36185          
1 67204U 25304N   26005.58336806 -.00180109  00000+0 -29825-2 0  9993
2 67204  69.9998 340.3097 0003162 265.9723  96.3925 15.52603551  4307
STARLINK-36197          
1 67205U 25304P   26005.58336806 -.00178249  00000+0 -29513-2 0  9990
2 67205  69.9998 340.3075 0003114 267.9856  96.2991 15.52600893  4274
STARLINK-36056          
1 67206U 25304Q   26005.58336806 -.00218052  00000+0 -36209-2 0  9998
2 67206  69.9998 340.3044 0003754 268.7812  97.3712 15.52658926  4275
STARLINK-36225          
1 67207U 25304R   26005.58336806 -.00179161  00000+0 -29667-2 0  9996
2 67207  69.9997 340.3029 0003123 267.0545 101.0634 15.52601254  4305
STARLINK-36265          
1 67208U 25304S   26005.58336806 -.00234164  00000+0 -38987-2 0  9997
2 67208  70.0000 340.2993 0003525 267.1552 102.8560 15.52644062  4309
STARLINK-36226          
1 67209U 25304T   26005.58336806 -.00253333  00000+0 -42259-2 0  9994
2 67209  69.9998 340.2968 0003656 268.1872 103.7360 15.52657983  4300
STARLINK-36173          
1 67210U 25304U   26005.58336806 -.00175726  00000+0 -29085-2 0  9997
2 67210  69.9999 340.2957 0003195 268.5635 105.3010 15.52601084  4301
STARLINK-36280          
1 67211U 25304V   26005.58336806 -.00212055  00000+0 -35235-2 0  9999
2 67211  70.0000 340.2923 0003276 268.5960 107.1820 15.52623145  4303
STARLINK-36213          
1 67212U 25304W   26005.58336806 -.00116621  00000+0 -19100-2 0  9995
2 67212  69.9996 340.2902 0003137 275.6767 102.0028 15.52675498  4304
STARLINK-36199          
1 67213U 25304X   26005.58336806 -.00186889  00000+0 -30970-2 0  9997
2 67213  69.9994 340.2870 0003184 269.0328 110.5837 15.52607852  4300
STARLINK-36203          
1 67214U 25304Y   26005.58336806 -.00207654  00000+0 -34437-2 0  9994
2 67214  70.0000 340.2864 0003714 265.9833 115.4925 15.52658613  4303
STARLINK-36221          
1 67215U 25304Z   26005.58336806 -.00197140  00000+0 -32659-2 0  9997
2 67215  69.9998 340.2843 0003569 266.1046 117.2857 15.52651124  4305
